{
    "links": {
        "self": "http://www.neowsapp.com/rest/v1/neo/3840854?api_key=iIulBulltgU6a56xZRHN4H3l9WmuAYTsLGpBGhQ2"
    },
    "id": "3840854",
    "neo_reference_id": "3840854",
    "name": "(2019 GY3)",
    "designation": "2019 GY3",
    "nasa_jpl_url": "http://ssd.jpl.nasa.gov/sbdb.cgi?sstr=3840854",
    "absolute_magnitude_h": 23.1,
    "estimated_diameter": {
        "kilometers": {
            "estimated_diameter_min": 0.063760979,
            "estimated_diameter_max": 0.1425738833
        },
        "meters": {
            "estimated_diameter_min": 63.7609789875,
            "estimated_diameter_max": 142.5738833281
        },
        "miles": {
            "estimated_diameter_min": 0.0396192233,
            "estimated_diameter_max": 0.0885912765
        },
        "feet": {
            "estimated_diameter_min": 209.1895703015,
            "estimated_diameter_max": 467.7620993781
        }
    },
    "is_potentially_hazardous_asteroid": false,
    "close_approach_data": [
        {
            "close_approach_date": "2019-05-24",
            "close_approach_date_full": "2019-May-24 03:31",
            "epoch_date_close_approach": 1558668660000,
            "relative_velocity": {
                "kilometers_per_second": "10.9651985414",
                "kilometers_per_hour": "39474.714749207",
                "miles_per_hour": "24528.0526173615"
            },
            "miss_distance": {
                "astronomical": "0.0806855917",
                "lunar": "31.3866951713",
                "kilometers": "12070392.658009679",
                "miles": "7500194.2090604102"
            },
            "orbiting_body": "Earth"
        },
        {
            "close_approach_date": "2022-09-09",
            "close_approach_date_full": "2022-Sep-09 18:05",
            "epoch_date_close_approach": 1662746700000,
            "relative_velocity": {
                "kilometers_per_second": "22.6145178219",
                "kilometers_per_hour": "81412.2641589235",
                "miles_per_hour": "50586.41491586"
            },
            "miss_distance": {
                "astronomical": "0.352107231",
                "lunar": "136.969712859",
                "kilometers": "52674491.76919797",
                "miles": "32730411.456033186"
            },
            "orbiting_body": "Earth"
        },
        {
            "close_approach_date": "2097-04-07",
            "close_approach_date_full": "2097-Apr-07 09:19",
            "epoch_date_close_approach": 4016164740000,
            "relative_velocity": {
                "kilometers_per_second": "26.8020372013",
                "kilometers_per_hour": "96487.3339247671",
                "miles_per_hour": "59953.4770156421"
            },
            "miss_distance": {
                "astronomical": "0.4821571552",
                "lunar": "187.5591333728",
                "kilometers": "72129683.423179424",
                "miles": "44819306.9802830912"
            },
            "orbiting_body": "Earth"
        },
        {
            "close_approach_date": "2100-06-20",
            "close_approach_date_full": "2100-Jun-20 04:29",
            "epoch_date_close_approach": 4117148940000,
            "relative_velocity": {
                "kilometers_per_second": "10.846338525",
                "kilometers_per_hour": "39046.8186899107",
                "miles_per_hour": "24262.174646517"
            },
            "miss_distance": {
                "astronomical": "0.1269542268",
                "lunar": "49.3851942252",
                "kilometers": "18992081.916776916",
                "miles": "11801132.4773008008"
            },
            "orbiting_body": "Earth"
        },
        {
            "close_approach_date": "2103-09-16",
            "close_approach_date_full": "2103-Sep-16 17:16",
            "epoch_date_close_approach": 4219406160000,
            "relative_velocity": {
                "kilometers_per_second": "24.8630914064",
                "kilometers_per_hour": "89507.129062995",
                "miles_per_hour": "55616.2491669482"
            },
            "miss_distance": {
                "astronomical": "0.4197335946",
                "lunar": "163.2763682994",
                "kilometers": "62791251.719603502",
                "miles": "39016674.5913202476"
            },
            "orbiting_body": "Earth"
        }
    ],
    "orbital_data": {
        "orbit_id": "6",
        "orbit_determination_date": "2019-08-17 05:31:19",
        "first_observation_date": "2019-04-05",
        "last_observation_date": "2019-05-07",
        "data_arc_in_days": 32,
        "observations_used": 28,
        "orbit_uncertainty": "7",
        "minimum_orbit_intersection": ".0546723",
        "jupiter_tisserand_invariant": "3.475",
        "epoch_osculation": "2459000.5",
        "eccentricity": ".5821990405547269",
        "semi_major_axis": "2.135272492197539",
        "inclination": "4.544975441471468",
        "ascending_node_longitude": "272.6075729232169",
        "orbital_period": "1139.668080290601",
        "perihelion_distance": ".8921188959172313",
        "perihelion_argument": "2.620980361764754",
        "aphelion_distance": "3.378426088477847",
        "perihelion_time": "2458652.681231673324",
        "mean_anomaly": "109.8694951302621",
        "mean_motion": ".315881444980195",
        "equinox": "J2000",
        "orbit_class": {
            "orbit_class_type": "APO",
            "orbit_class_description": "Near-Earth asteroid orbits which cross the Earth’s orbit similar to that of 1862 Apollo",
            "orbit_class_range": "a (semi-major axis) > 1.0 AU; q (perihelion) < 1.017 AU"
        }
    },
    "is_sentry_object": false
}